{"type": "FeatureCollection", "features": [ {"type": "Feature", "properties": {"norad_id": 44542, "name": "BEIDOU-3 M24 (C46)", "group": "beidou", "lat": -20.29287842122352, "lon": 24.246344155057713, "alt_km": 21557.761668194915, "timestamp": "2025-12-16T23:36:36.461887+00:00", "meta": {"OBJECT_NAME": "BEIDOU-3 M24 (C46)", "OBJECT_ID": "2019-061A", "EPOCH": "2025-12-15T14:29:31.339680", "MEAN_MOTION": 1.8622936, "ECCENTRICITY": 0.00095934, "INCLINATION": 54.4001, "RA_OF_ASC_NODE": 188.9192, "ARG_OF_PERICENTER": 24.73, "MEAN_ANOMALY": 335.3854, "EPHEMERIS_TYPE": 0, "CLASSIFICATION_TYPE": "U", "NORAD_CAT_ID": 44542, "ELEMENT_SET_NO": 999, "REV_AT_EPOCH": 4237, "BSTAR": 0, "MEAN_MOTION_DOT": 1.14e-06, "MEAN_MOTION_DDOT": 0}, "tle": {"line1": "1 44542U 19061A   25349.60383495  .00000114  00000+0  00000+0 0  9991", "line2": "2 44542  54.4001 188.9192 0009593  24.7300 335.3854  1.86229360 42379"}}, "geometry": {"type": "Point", "coordinates": [24.246344155057713, -20.29287842122352]}}, {"type": "Feature", "properties": {"norad_id": 44543, "name": "BEIDOU-3 M23 (C45)", "group": "beidou", "lat": 45.83225621348659, "lon": -38.69826186719499, "alt_km": 21523.86211012076, "timestamp": "2025-12-16T23:36:36.461898+00:00", "meta": {"OBJECT_NAME": "BEIDOU-3 M23 (C45)", "OBJECT_ID": "2019-061B", "EPOCH": "2025-12-16T06:33:39.409920", "MEAN_MOTION": 1.86227705, "ECCENTRICITY": 0.00061054, "INCLINATION": 54.399, "RA_OF_ASC_NODE": 188.865, "ARG_OF_PERICENTER": 24.5789, "MEAN_ANOMALY": 337.1686, "EPHEMERIS_TYPE": 0, "CLASSIFICATION_TYPE": "U", "NORAD_CAT_ID": 44543, "ELEMENT_SET_NO": 999, "REV_AT_EPOCH": 4239, "BSTAR": 0, "MEAN_MOTION_DOT": 1.15e-06, "MEAN_MOTION_DDOT": 0}, "tle": {"line1": "1 44543U 19061B   25350.27337280  .00000115  00000+0  00000+0 0  9999", "line2": "2 44543  54.3990 188.8650 0006105  24.5789 337.1686  1.86227705 42395"}}, "geometry": {"type": "Point", "coordinates": [-38.69826186719499, 45.83225621348659]}}, {"type": "Feature", "properties": {"norad_id": 44709, "name": "BEIDOU-3 IGSO-3 (C40)", "group": "beidou", "lat": -55.154828321811785, "lon": -166.3705989527252, "alt_km": 35763.72066752725, "timestamp": "2025-12-16T23:36:36.461910+00:00", "meta": {"OBJECT_NAME": "BEIDOU-3 IGSO-3 (C40)", "OBJECT_ID": "2019-073A", "EPOCH": "2025-11-20T07:11:22.740000", "MEAN_MOTION": 1.00250097, "ECCENTRICITY": 0.0044538, "INCLINATION": 55.163, "RA_OF_ASC_NODE": 283.159, "ARG_OF_PERICENTER": 191.5856, "MEAN_ANOMALY": 168.2409, "EPHEMERIS_TYPE": 0, "CLASSIFICATION_TYPE": "U", "NORAD_CAT_ID": 44709, "ELEMENT_SET_NO": 999, "REV_AT_EPOCH": 2236, "BSTAR": 0, "MEAN_MOTION_DOT": -2.06e-06, "MEAN_MOTION_DDOT": 0}, "tle": {"line1": "1 44709U 19073A   25324.29956875 -.00000206  00000+0  00000+0 0  9998", "line2": "2 44709  55.1630 283.1590 0044538 191.5856 168.2409  1.00250097 22360"}}, "geometry": {"type": "Point", "coordinates": [-166.3705989527252, -55.154828321811785]}}, {"type": "Feature", "properties": {"norad_id": 44793, "name": "BEIDOU-3 M22 (C44)", "group": "beidou", "lat": -36.73817831990918, "lon": -86.48060836368825, "alt_km": 21527.165124211308, "timestamp": "2025-12-16T23:36:36.461927+00:00", "meta": {"OBJECT_NAME": "BEIDOU-3 M22 (C44)", "OBJECT_ID": "2019-078A", "EPOCH": "2025-12-15T23:32:20.992992", "MEAN_MOTION": 1.86231869, "ECCENTRICITY": 0.00058075, "INCLINATION": 54.1051, "RA_OF_ASC_NODE": 306.2718, "ARG_OF_PERICENTER": 23.5551, "MEAN_ANOMALY": 336.4582, "EPHEMERIS_TYPE": 0, "CLASSIFICATION_TYPE": "U", "NORAD_CAT_ID": 44793, "ELEMENT_SET_NO": 999, "REV_AT_EPOCH": 4123, "BSTAR": 0, "MEAN_MOTION_DOT": -9.7e-07, "MEAN_MOTION_DDOT": 0}, "tle": {"line1": "1 44793U 19078A   25349.98079853 -.00000097  00000+0  00000+0 0  9999", "line2": "2 44793  54.1051 306.2718 0005807  23.5551 336.4582  1.86231869 41238"}}, "geometry": {"type": "Point", "coordinates": [-86.48060836368825, -36.73817831990918]}}, {"type": "Feature", "properties": {"norad_id": 44794, "name": "BEIDOU-3 M21 (C43)", "group": "beidou", "lat": -31.44259334962816, "lon": 152.46750657997652, "alt_km": 21542.08026712297, "timestamp": "2025-12-16T23:36:36.461938+00:00", "meta": {"OBJECT_NAME": "BEIDOU-3 M21 (C43)", "OBJECT_ID": "2019-078B", "EPOCH": "2025-12-15T13:57:29.064096", "MEAN_MOTION": 1.86227547, "ECCENTRICITY": 0.00039999, "INCLINATION": 54.0788, "RA_OF_ASC_NODE": 306.2509, "ARG_OF_PERICENTER": 11.1298, "MEAN_ANOMALY": 348.8661, "EPHEMERIS_TYPE": 0, "CLASSIFICATION_TYPE": "U", "NORAD_CAT_ID": 44794, "ELEMENT_SET_NO": 999, "REV_AT_EPOCH": 4123, "BSTAR": 0, "MEAN_MOTION_DOT": -9.9e-07, "MEAN_MOTION_DDOT": 0}, "tle": {"line1": "1 44794U 19078B   25349.58158639 -.00000099  00000+0  00000+0 0  9998", "line2": "2 44794  54.0788 306.2509 0003999  11.1298 348.8661  1.86227547 41237"}}, "geometry": {"type": "Point", "coordinates": [152.46750657997652, -31.44259334962816]}}, {"type": "Feature", "properties": {"norad_id": 44864, "name": "BEIDOU-3 M19 (C41)", "group": "beidou", "lat": 43.68713801958231, "lon": 108.1864756625822, "alt_km": 21555.2796268508, "timestamp": "2025-12-16T23:36:36.461950+00:00", "meta": {"OBJECT_NAME": "BEIDOU-3 M19 (C41)", "OBJECT_ID": "2019-090A", "EPOCH": "2025-12-10T23:47:39.658272", "MEAN_MOTION": 1.86231263, "ECCENTRICITY": 0.0017877, "INCLINATION": 56.392, "RA_OF_ASC_NODE": 69.0187, "ARG_OF_PERICENTER": 285.2046, "MEAN_ANOMALY": 73.1126, "EPHEMERIS_TYPE": 0, "CLASSIFICATION_TYPE": "U", "NORAD_CAT_ID": 44864, "ELEMENT_SET_NO": 999, "REV_AT_EPOCH": 4072, "BSTAR": 0, "MEAN_MOTION_DOT": -6e-07, "MEAN_MOTION_DDOT": 0}, "tle": {"line1": "1 44864U 19090A   25344.99143123 -.00000060  00000+0  00000+0 0  9990", "line2": "2 44864  56.3920  69.0187 0017877 285.2046  73.1126  1.86231263 40726"}}, "geometry": {"type": "Point", "coordinates": [108.1864756625822, 43.68713801958231]}}, {"type": "Feature", "properties": {"norad_id": 44865, "name": "BEIDOU-3 M20 (C42)", "group": "beidou", "lat": 28.217772748876282, "lon": -132.00262161318278, "alt_km": 21561.48063487309, "timestamp": "2025-12-16T23:36:36.461962+00:00", "meta": {"OBJECT_NAME": "BEIDOU-3 M20 (C42)", "OBJECT_ID": "2019-090B", "EPOCH": "2025-12-10T20:36:05.507712", "MEAN_MOTION": 1.86231317, "ECCENTRICITY": 0.0014897, "INCLINATION": 56.3937, "RA_OF_ASC_NODE": 69.0576, "ARG_OF_PERICENTER": 298.003, "MEAN_ANOMALY": 60.7372, "EPHEMERIS_TYPE": 0, "CLASSIFICATION_TYPE": "U", "NORAD_CAT_ID": 44865, "ELEMENT_SET_NO": 999, "REV_AT_EPOCH": 4070, "BSTAR": 0, "MEAN_MOTION_DOT": -5.8e-07, "MEAN_MOTION_DDOT": 0}, "tle": {"line1": "1 44865U 19090B   25344.85839708 -.00000058  00000+0  00000+0 0  9994", "line2": "2 44865  56.3937  69.0576 0014897 298.0030  60.7372  1.86231317 40704"}}, "geometry": {"type": "Point", "coordinates": [-132.00262161318278, 28.217772748876282]}}, {"type": "Feature", "properties": {"norad_id": 45344, "name": "BEIDOU-3 G2 (C60)", "group": "beidou", "lat": 2.250727917174562, "lon": 160.06216676179713, "alt_km": 35802.08072108112, "timestamp": "2025-12-16T23:36:36.461974+00:00", "meta": {"OBJECT_NAME": "BEIDOU-3 G2 (C60)", "OBJECT_ID": "2020-017A", "EPOCH": "2025-12-16T08:36:05.183712", "MEAN_MOTION": 1.00273108, "ECCENTRICITY": 0.00043735, "INCLINATION": 2.504, "RA_OF_ASC_NODE": 43.9369, "ARG_OF_PERICENTER": 271.0939, "MEAN_ANOMALY": 339.2897, "EPHEMERIS_TYPE": 0, "CLASSIFICATION_TYPE": "U", "NORAD_CAT_ID": 45344, "ELEMENT_SET_NO": 999, "REV_AT_EPOCH": 2142, "BSTAR": 0, "MEAN_MOTION_DOT": -1.19e-06, "MEAN_MOTION_DDOT": 0}, "tle": {"line1": "1 45344U 20017A   25350.35839333 -.00000119  00000+0  00000+0 0  9992", "line2": "2 45344   2.5040  43.9369 0004373 271.0939 339.2897  1.00273108 21427"}}, "geometry": {"type": "Point", "coordinates": [160.06216676179713, 2.250727917174562]}}, {"type": "Feature", "properties": {"norad_id": 45807, "name": "BEIDOU-3 G3 (C61)", "group": "beidou", "lat": 1.6480057296443829, "lon": -169.38769735568525, "alt_km": 35812.34032744991, "timestamp": "2025-12-16T23:36:36.461986+00:00", "meta": {"OBJECT_NAME": "BEIDOU-3 G3 (C61)", "OBJECT_ID": "2020-040A", "EPOCH": "2025-12-16T07:01:59.196000", "MEAN_MOTION": 1.00272482, "ECCENTRICITY": 0.0006341, "INCLINATION": 1.9998, "RA_OF_ASC_NODE": 66.6159, "ARG_OF_PERICENTER": 308.3775, "MEAN_ANOMALY": 286.2679, "EPHEMERIS_TYPE": 0, "CLASSIFICATION_TYPE": "U", "NORAD_CAT_ID": 45807, "ELEMENT_SET_NO": 999, "REV_AT_EPOCH": 2023, "BSTAR": 0, "MEAN_MOTION_DOT": -3.32e-06, "MEAN_MOTION_DDOT": 0}, "tle": {"line1": "1 45807U 20040A   25350.29304625 -.00000332  00000+0  00000+0 0  9993", "line2": "2 45807   1.9998  66.6159 0006341 308.3775 286.2679  1.00272482 20235"}}, "geometry": {"type": "Point", "coordinates": [-169.38769735568525, 1.6480057296443829]}}, {"type": "Feature", "properties": {"norad_id": 56564, "name": "BEIDOU-3 G4 (C62)", "group": "beidou", "lat": -0.7373866254551522, "lon": -119.90080402554092, "alt_km": 35782.05049555696, "timestamp": "2025-12-16T23:36:36.461998+00:00", "meta": {"OBJECT_NAME": "BEIDOU-3 G4 (C62)", "OBJECT_ID": "2023-066A", "EPOCH": "2025-12-16T07:44:38.706144", "MEAN_MOTION": 1.00271767, "ECCENTRICITY": 0.00027932, "INCLINATION": 0.8071, "RA_OF_ASC_NODE": 302.3401, "ARG_OF_PERICENTER": 228.4152, "MEAN_ANOMALY": 190.6839, "EPHEMERIS_TYPE": 0, "CLASSIFICATION_TYPE": "U", "NORAD_CAT_ID": 56564, "ELEMENT_SET_NO": 999, "REV_AT_EPOCH": 956, "BSTAR": 0, "MEAN_MOTION_DOT": -8.7e-07, "MEAN_MOTION_DDOT": 0}, "tle": {"line1": "1 56564U 23066A   25350.32267021 -.00000087  00000+0  00000+0 0  9995", "line2": "2 56564   0.8071 302.3401 0002793 228.4152 190.6839  1.00271767  9569"}}, "geometry": {"type": "Point", "coordinates": [-119.90080402554092, -0.7373866254551522]}}]}